SITRO-TD-3              
1 67270U 25313Y   26025.45576525  .00016480  00000+0  75384-3 0  9998
2 67270  97.4094 102.4446 0016250 141.6587 218.5807 15.20487194  4246
2025-313Z               
1 67271U 25313Z   26025.45804806  .00007914  00000+0  36735-3 0  9994
2 67271  97.4090 102.4313 0016441 137.8597 222.3906 15.20172039  4248
2025-313AA              
1 67272U 25313AA  26025.18959765  .00018559  00000+0  84297-3 0  9993
2 67272  97.4094 102.1784 0015979 142.8630 217.3714 15.20707368  4207
2025-313AB              
1 67273U 25313AB  26025.45815609  .00005621  00000+0  26246-3 0  9998
2 67273  97.4109 102.4367 0015437 145.9198 214.3031 15.20112086  4247
2025-313AC              
1 67274U 25313AC  26025.45556539  .00011842  00000+0  54442-3 0  9994
2 67274  97.4083 102.4399 0016116 141.0486 219.1913 15.20391821  4244
2025-313AD              
1 67275U 25313AD  26025.45449169  .00011980  00000+0  54980-3 0  9995
2 67275  97.4057 102.4324 0015264 143.7896 216.4376 15.20463531  4242
2025-313AE              
1 67276U 25313AE  26025.45447759  .00011549  00000+0  53025-3 0  9999
2 67276  97.4062 102.4337 0015238 143.8785 216.3482 15.20457187  4249
2025-313AF              
1 67277U 25313AF  26025.45498703  .00010976  00000+0  50492-3 0  9993
2 67277  97.4064 102.4340 0015241 143.7111 216.5161 15.20404848  4244
2025-313AG              
1 67278U 25313AG  26025.45462491  .00010961  00000+0  50343-3 0  9998
2 67278  97.4067 102.4354 0015076 143.9016 216.3240 15.20460124  4251
GALAPAGOS-UTE-SWSU      
1 67279U 25313AH  26025.45348964  .00012368  00000+0  56627-3 0  9991
2 67279  97.4077 102.4408 0015734 140.7530 219.4849 15.20528859  4248
2025-313AJ              
1 67280U 25313AJ  26025.44777366  .00009385  00000+0  42794-3 0  9999
2 67280  97.4149 102.4616 0014685 137.7385 222.4985 15.20759833  4242
2025-313AK              
1 67281U 25313AK  26025.51189891  .00009166  00000+0  41708-3 0  9999
2 67281  97.4032 102.4965 0013408 136.5609 223.6686 15.20853325  4252
