CCSDS_OMM_VERS = 2.0
CREATION_DATE  = 
ORIGINATOR     = 

OBJECT_NAME    = SITRO-TD-3
OBJECT_ID      = 2025-313Y
CENTER_NAME    = EARTH
REF_FRAME      = TEME
TIME_SYSTEM    = UTC
MEAN_ELEMENT_THEORY = SGP/SGP4

EPOCH          = 2026-01-25T10:56:18.117600
MEAN_MOTION    = 15.20487194
ECCENTRICITY   = .001625
INCLINATION    = 97.4094
RA_OF_ASC_NODE = 102.4446
ARG_OF_PERICENTER = 141.6587
MEAN_ANOMALY   = 218.5807

EPHEMERIS_TYPE = 0
CLASSIFICATION_TYPE = U
NORAD_CAT_ID   = 67270
ELEMENT_SET_NO = 999
REV_AT_EPOCH   = 424
BSTAR          = .75384E-3
MEAN_MOTION_DOT = .1648E-3
MEAN_MOTION_DDOT = 0

CCSDS_OMM_VERS = 2.0
CREATION_DATE  = 
ORIGINATOR     = 

OBJECT_NAME    = 2025-313Z
OBJECT_ID      = 2025-313Z
CENTER_NAME    = EARTH
REF_FRAME      = TEME
TIME_SYSTEM    = UTC
MEAN_ELEMENT_THEORY = SGP/SGP4

EPOCH          = 2026-01-25T10:59:35.352384
MEAN_MOTION    = 15.20172039
ECCENTRICITY   = .0016441
INCLINATION    = 97.4090
RA_OF_ASC_NODE = 102.4313
ARG_OF_PERICENTER = 137.8597
MEAN_ANOMALY   = 222.3906

EPHEMERIS_TYPE = 0
CLASSIFICATION_TYPE = U
NORAD_CAT_ID   = 67271
ELEMENT_SET_NO = 999
REV_AT_EPOCH   = 424
BSTAR          = .36735E-3
MEAN_MOTION_DOT = .7914E-4
MEAN_MOTION_DDOT = 0

CCSDS_OMM_VERS = 2.0
CREATION_DATE  = 
ORIGINATOR     = 

OBJECT_NAME    = 2025-313AA
OBJECT_ID      = 2025-313AA
CENTER_NAME    = EARTH
REF_FRAME      = TEME
TIME_SYSTEM    = UTC
MEAN_ELEMENT_THEORY = SGP/SGP4

EPOCH          = 2026-01-25T04:33:01.236960
MEAN_MOTION    = 15.20707368
ECCENTRICITY   = .0015979
INCLINATION    = 97.4094
RA_OF_ASC_NODE = 102.1784
ARG_OF_PERICENTER = 142.8630
MEAN_ANOMALY   = 217.3714

EPHEMERIS_TYPE = 0
CLASSIFICATION_TYPE = U
NORAD_CAT_ID   = 67272
ELEMENT_SET_NO = 999
REV_AT_EPOCH   = 420
BSTAR          = .84297E-3
MEAN_MOTION_DOT = .18559E-3
MEAN_MOTION_DDOT = 0

CCSDS_OMM_VERS = 2.0
CREATION_DATE  = 
ORIGINATOR     = 

OBJECT_NAME    = 2025-313AB
OBJECT_ID      = 2025-313AB
CENTER_NAME    = EARTH
REF_FRAME      = TEME
TIME_SYSTEM    = UTC
MEAN_ELEMENT_THEORY = SGP/SGP4

EPOCH          = 2026-01-25T10:59:44.686176
MEAN_MOTION    = 15.20112086
ECCENTRICITY   = .0015437
INCLINATION    = 97.4109
RA_OF_ASC_NODE = 102.4367
ARG_OF_PERICENTER = 145.9198
MEAN_ANOMALY   = 214.3031

EPHEMERIS_TYPE = 0
CLASSIFICATION_TYPE = U
NORAD_CAT_ID   = 67273
ELEMENT_SET_NO = 999
REV_AT_EPOCH   = 424
BSTAR          = .26246E-3
MEAN_MOTION_DOT = .5621E-4
MEAN_MOTION_DDOT = 0

CCSDS_OMM_VERS = 2.0
CREATION_DATE  = 
ORIGINATOR     = 

OBJECT_NAME    = 2025-313AC
OBJECT_ID      = 2025-313AC
CENTER_NAME    = EARTH
REF_FRAME      = TEME
TIME_SYSTEM    = UTC
MEAN_ELEMENT_THEORY = SGP/SGP4

EPOCH          = 2026-01-25T10:56:00.849696
MEAN_MOTION    = 15.20391821
ECCENTRICITY   = .0016116
INCLINATION    = 97.4083
RA_OF_ASC_NODE = 102.4399
ARG_OF_PERICENTER = 141.0486
MEAN_ANOMALY   = 219.1913

EPHEMERIS_TYPE = 0
CLASSIFICATION_TYPE = U
NORAD_CAT_ID   = 67274
ELEMENT_SET_NO = 999
REV_AT_EPOCH   = 424
BSTAR          = .54442E-3
MEAN_MOTION_DOT = .11842E-3
MEAN_MOTION_DDOT = 0

CCSDS_OMM_VERS = 2.0
CREATION_DATE  = 
ORIGINATOR     = 

OBJECT_NAME    = 2025-313AD
OBJECT_ID      = 2025-313AD
CENTER_NAME    = EARTH
REF_FRAME      = TEME
TIME_SYSTEM    = UTC
MEAN_ELEMENT_THEORY = SGP/SGP4

EPOCH          = 2026-01-25T10:54:28.082016
MEAN_MOTION    = 15.20463531
ECCENTRICITY   = .0015264
INCLINATION    = 97.4057
RA_OF_ASC_NODE = 102.4324
ARG_OF_PERICENTER = 143.7896
MEAN_ANOMALY   = 216.4376

EPHEMERIS_TYPE = 0
CLASSIFICATION_TYPE = U
NORAD_CAT_ID   = 67275
ELEMENT_SET_NO = 999
REV_AT_EPOCH   = 424
BSTAR          = .5498E-3
MEAN_MOTION_DOT = .1198E-3
MEAN_MOTION_DDOT = 0

CCSDS_OMM_VERS = 2.0
CREATION_DATE  = 
ORIGINATOR     = 

OBJECT_NAME    = 2025-313AE
OBJECT_ID      = 2025-313AE
CENTER_NAME    = EARTH
REF_FRAME      = TEME
TIME_SYSTEM    = UTC
MEAN_ELEMENT_THEORY = SGP/SGP4

EPOCH          = 2026-01-25T10:54:26.863776
MEAN_MOTION    = 15.20457187
ECCENTRICITY   = .0015238
INCLINATION    = 97.4062
RA_OF_ASC_NODE = 102.4337
ARG_OF_PERICENTER = 143.8785
MEAN_ANOMALY   = 216.3482

EPHEMERIS_TYPE = 0
CLASSIFICATION_TYPE = U
NORAD_CAT_ID   = 67276
ELEMENT_SET_NO = 999
REV_AT_EPOCH   = 424
BSTAR          = .53025E-3
MEAN_MOTION_DOT = .11549E-3
MEAN_MOTION_DDOT = 0

CCSDS_OMM_VERS = 2.0
CREATION_DATE  = 
ORIGINATOR     = 

OBJECT_NAME    = 2025-313AF
OBJECT_ID      = 2025-313AF
CENTER_NAME    = EARTH
REF_FRAME      = TEME
TIME_SYSTEM    = UTC
MEAN_ELEMENT_THEORY = SGP/SGP4

EPOCH          = 2026-01-25T10:55:10.879392
MEAN_MOTION    = 15.20404848
ECCENTRICITY   = .0015241
INCLINATION    = 97.4064
RA_OF_ASC_NODE = 102.4340
ARG_OF_PERICENTER = 143.7111
MEAN_ANOMALY   = 216.5161

EPHEMERIS_TYPE = 0
CLASSIFICATION_TYPE = U
NORAD_CAT_ID   = 67277
ELEMENT_SET_NO = 999
REV_AT_EPOCH   = 424
BSTAR          = .50492E-3
MEAN_MOTION_DOT = .10976E-3
MEAN_MOTION_DDOT = 0

CCSDS_OMM_VERS = 2.0
CREATION_DATE  = 
ORIGINATOR     = 

OBJECT_NAME    = 2025-313AG
OBJECT_ID      = 2025-313AG
CENTER_NAME    = EARTH
REF_FRAME      = TEME
TIME_SYSTEM    = UTC
MEAN_ELEMENT_THEORY = SGP/SGP4

EPOCH          = 2026-01-25T10:54:39.592224
MEAN_MOTION    = 15.20460124
ECCENTRICITY   = .0015076
INCLINATION    = 97.4067
RA_OF_ASC_NODE = 102.4354
ARG_OF_PERICENTER = 143.9016
MEAN_ANOMALY   = 216.3240

EPHEMERIS_TYPE = 0
CLASSIFICATION_TYPE = U
NORAD_CAT_ID   = 67278
ELEMENT_SET_NO = 999
REV_AT_EPOCH   = 425
BSTAR          = .50343E-3
MEAN_MOTION_DOT = .10961E-3
MEAN_MOTION_DDOT = 0

CCSDS_OMM_VERS = 2.0
CREATION_DATE  = 
ORIGINATOR     = 

OBJECT_NAME    = GALAPAGOS-UTE-SWSU
OBJECT_ID      = 2025-313AH
CENTER_NAME    = EARTH
REF_FRAME      = TEME
TIME_SYSTEM    = UTC
MEAN_ELEMENT_THEORY = SGP/SGP4

EPOCH          = 2026-01-25T10:53:01.504896
MEAN_MOTION    = 15.20528859
ECCENTRICITY   = .0015734
INCLINATION    = 97.4077
RA_OF_ASC_NODE = 102.4408
ARG_OF_PERICENTER = 140.7530
MEAN_ANOMALY   = 219.4849

EPHEMERIS_TYPE = 0
CLASSIFICATION_TYPE = U
NORAD_CAT_ID   = 67279
ELEMENT_SET_NO = 999
REV_AT_EPOCH   = 424
BSTAR          = .56627E-3
MEAN_MOTION_DOT = .12368E-3
MEAN_MOTION_DDOT = 0

CCSDS_OMM_VERS = 2.0
CREATION_DATE  = 
ORIGINATOR     = 

OBJECT_NAME    = 2025-313AJ
OBJECT_ID      = 2025-313AJ
CENTER_NAME    = EARTH
REF_FRAME      = TEME
TIME_SYSTEM    = UTC
MEAN_ELEMENT_THEORY = SGP/SGP4

EPOCH          = 2026-01-25T10:44:47.644224
MEAN_MOTION    = 15.20759833
ECCENTRICITY   = .0014685
INCLINATION    = 97.4149
RA_OF_ASC_NODE = 102.4616
ARG_OF_PERICENTER = 137.7385
MEAN_ANOMALY   = 222.4985

EPHEMERIS_TYPE = 0
CLASSIFICATION_TYPE = U
NORAD_CAT_ID   = 67280
ELEMENT_SET_NO = 999
REV_AT_EPOCH   = 424
BSTAR          = .42794E-3
MEAN_MOTION_DOT = .9385E-4
MEAN_MOTION_DDOT = 0

CCSDS_OMM_VERS = 2.0
CREATION_DATE  = 
ORIGINATOR     = 

OBJECT_NAME    = 2025-313AK
OBJECT_ID      = 2025-313AK
CENTER_NAME    = EARTH
REF_FRAME      = TEME
TIME_SYSTEM    = UTC
MEAN_ELEMENT_THEORY = SGP/SGP4

EPOCH          = 2026-01-25T12:17:08.065824
MEAN_MOTION    = 15.20853325
ECCENTRICITY   = .0013408
INCLINATION    = 97.4032
RA_OF_ASC_NODE = 102.4965
ARG_OF_PERICENTER = 136.5609
MEAN_ANOMALY   = 223.6686

EPHEMERIS_TYPE = 0
CLASSIFICATION_TYPE = U
NORAD_CAT_ID   = 67281
ELEMENT_SET_NO = 999
REV_AT_EPOCH   = 425
BSTAR          = .41708E-3
MEAN_MOTION_DOT = .9166E-4
MEAN_MOTION_DDOT = 0

